# From MPC 35207
C/1999 K7 (LINEAR),p,02/25.0473/1999,135.1698,104.7378,2.324238,50.3130,2000,13.0,4.0
# From MPC 96864
C/1999 K8 (LINEAR),e,52.8041,195.1961,164.3380,1943,0.0000115,0.99786629,0.0000,04/26.0435/2000,2000,g  5.0,4.0
# From MPC 35208
C/1999 L2 (LINEAR),e,44.3079,93.9524,178.8447,331.2340,0.0001635,0.99428727,0.0000,08/14.6473/1999,2000,g 13.0,4.0
# From MPC 37478
C/1999 L3 (LINEAR),e,165.9283,140.9714,353.8953,78.65996,0.0014128,0.97510969,0.0000,01/15.0475/2000,2000,g 10.0,4.0
# From MPC 35814
C/1999 N2 (Lynn),e,112.2562,254.4132,357.9289,241.3534,0.0002629,0.99677190,0.0000,07/26.5632/1999,2000,g  9.5,4.0
# From MPC 73461
C/1999 N4 (LINEAR),h,05/15.3153/2000,157.0133,346.1331,90.9353,1.000736,5.575222,2000,6.0,4.0
# From NK 731
P/1999 RO28 (LONEOS),e,7.5666,137.8831,231.2708,3.426777,0.1553729,0.67202516,73.1670,10/09.0/2020,2000,g 20.0,2.0
# From MPC 43758
C/1999 S2 (McNaught-Watson),h,12/02.5472/1997,66.0304,74.3718,223.4281,1.003427,6.449616,2000,2.0,4.0
# From MPC 39022
C/1999 S3 (LINEAR),e,70.7423,12.0491,43.9935,18.72181,0.0121670,0.89816732,93.1885,10/09.0/2020,2000,g 10.0,4.0
# From MPC 40988
C/1999 S4 (LINEAR),e,149.6324,82.6657,150.8650,702.3875,0.0000529,0.99886858,0.0000,07/20.5470/2000,2000,g  9.0,4.0
# From MPC102094
C/1999 T1 (McNaught-Hartley),h,12/13.3037/2000,79.5227,182.7874,345.0033,1.000225,1.195697,2000,5.0,4.0
# From MPC 73461
C/1999 T2 (LINEAR),h,11/14.0007/2000,111.0774,15.1458,105.0114,1.000260,3.086375,2000,6.0,4.0
# From MPC 41897
C/1999 T3 (LINEAR),e,104.7744,223.5598,211.1142,759.3332,0.0000471,0.99295081,0.0000,08/19.4378/2000,2000,g  6.0,4.0
# From MPC 41158
C/1999 U1 (Ferris),e,105.9300,58.4138,290.7996,2168,0.0000098,0.99811668,0.0000,09/12.2833/1998,2000,g  6.5,4.0
# From MPC 45961
C/1999 U4 (Catalina-Skiff),h,10/12.2398/2001,52.0271,32.3158,77.5274,1.001125,4.946091,2000,4.5,4.0
# From MPC 39023
C/1999 XS87 (LINEAR),e,14.7981,266.9719,150.9584,17.15444,0.0138720,0.83829178,107.5844,10/09.0/2020,2000,g 10.0,4.0
# From MPC 75704
P/1999 XN120 (Catalina),e,5.0297,285.2954,161.9117,4.178951,0.1153727,0.21039004,140.3106,10/09.0/2020,2000,g 13.5,2.0
# From MPC 43758
C/1999 Y1 (LINEAR),e,134.9779,188.7498,183.9829,1976,0.0000112,0.99843735,0.0000,03/12.0877/2001,2000,g  5.5,4.0
# From MPC 44860
C/2000 A1 (Montani),e,24.4952,112.0095,14.3226,8780,0.0000012,0.99888565,0.0000,06/30.2161/2000,2000,g  3.5,4.0
# From MPC 39023
C/2000 B2 (LINEAR),p,11/09.9344/1999,93.6545,154.5683,3.776036,284.9897,2000,13.0,2.0
# From MPC 60280
C/2000 CT54 (LINEAR),e,49.1193,18.7512,272.5937,2506,0.0000079,0.99875357,0.0000,06/29.6159/2001,2000,g 11.0,2.0
# From MPC 40669
C/2000 D2 (LINEAR),e,156.9918,235.8874,117.6825,17.28972,0.0137095,0.86711023,359.9916,03/08.0/2000,2000,g 15.0,2.0
# From MPC 40669
C/2000 G2 (LINEAR),e,170.4791,328.3872,101.7505,14.22421,0.0183722,0.80900663,359.9972,02/06.0/2000,2000,g 11.5,4.0
# From MPC 72848
C/2000 H1 (LINEAR),e,118.4650,356.7015,79.1371,4652,0.0000031,0.99920820,0.0000,01/16.7872/2000,2000,g  9.5,4.0
# From MPC 40823
C/2000 J1 (Ferris),e,98.6879,28.5191,147.5685,56.21178,0.0023386,0.95398259,17.4431,10/09.0/2020,2000,g 15.5,2.0
# From MPC 42547
C/2000 K1 (LINEAR),h,12/13.4104/1999,116.9113,260.0365,15.9611,1.000486,6.328366,2000,4.0,4.0
# From MPC 72128
C/2000 K2 (LINEAR),e,25.6035,194.9744,106.8062,450.2294,0.0001032,0.99466971,0.0000,10/22.3770/2000,2000,g 11.0,4.0
# From MPC 48380
C/2000 O1 (Koehn),e,147.9510,88.9226,54.9513,4004,0.0000039,0.99852858,0.0000,01/18.3856/2000,2000,g  6.0,4.0
# From MPC 43018
C/2000 OF8 (Spacewatch),h,08/10.3929/2001,152.1723,117.6993,256.6428,1.006084,2.174091,2000,9.5,4.0
# From NK 744
P/2000 R2 (LINEAR),e,11.6842,160.2957,176.5108,3.465937,0.1527471,0.53155369,73.2579,10/09.0/2020,2000,g 18.0,4.0
# From MPC 41898
C/2000 S3 (LONEOS),e,25.0738,40.7948,298.5075,11.66615,0.0247350,0.77411789,182.7805,10/09.0/2020,2000,g 12.0,4.0
# From MPC 45654
C/2000 S5,p,10/26.64/2000,53.82,291.48,0.6018,341.63,2000,9.0,4.0
# From MPC 52163
C/2000 SV74 (LINEAR),h,04/15.8563/2002,75.4296,24.2716,76.2233,1.000092,3.570537,2000,5.5,4.0
# From MPC 43758
C/2000 U5 (LINEAR),h,03/20.1957/2000,93.4864,65.4781,298.5281,1.005803,3.425185,2000,7.0,4.0
# From MPC 42106
C/2000 W1 (Utsunomiya-Jones),p,12/26.5593/2000,160.1654,51.5091,0.321180,10.7661,2000,10.5,4.0
# From MPC 46619
C/2000 WM1 (LINEAR),h,01/15.8933/2002,72.4746,237.6058,277.1885,1.000188,0.579412,2000,7.5,4.0
# From MPC 48380
C/2000 Y1 (Tubbiolo),e,137.9782,239.4798,181.4558,12887,0.0000007,0.99938576,0.0000,01/28.9141/2001,2000,g 11.0,2.0
# From MPC 43018
C/2000 Y2 (Skiff),e,12.0603,186.0674,327.0188,545.2005,0.0000774,0.99482145,0.0000,03/09.4080/2001,2000,g 11.0,4.0
# From MPC 42547
C/2001 A1 (LINEAR),e,60.0421,340.1253,107.6662,217.6893,0.0003069,0.98886476,0.0000,09/06.8376/2000,2000,g 10.5,4.0
# From MPC 44030
C/2001 A2-A (LINEAR),e,36.5602,294.0137,296.2991,1109144,0.0000000,0.99999929,0.0000,05/29.6671/2001,2000,g  9.0,4.0
# From MPC 44030
C/2001 A2-B (LINEAR),e,36.5490,294.0138,296.2878,1374,0.0000194,0.99942851,0.0000,05/29.6766/2001,2000,g  9.0,4.0
# From MPC 43758
C/2001 B1 (LINEAR),h,09/28.4559/2000,104.1528,49.8932,284.5056,1.000419,2.877066,2000,9.0,4.0
# From MPC 44182
C/2001 B2 (NEAT),e,150.7056,145.5148,305.4470,31082,0.0000002,0.99982820,0.0000,09/06.6752/2000,2000,g  4.0,4.0
# From MPC 45961
C/2001 C1 (LINEAR),h,04/04.8195/2002,68.8715,33.7016,220.1616,1.002703,5.118218,2000,6.0,4.0
# From MPC 45334
C/2001 G1 (LONEOS),h,10/04.4854/2001,45.3319,203.9789,343.6425,1.002948,8.310647,2000,3.5,4.0
# From MPC 43019
P/2001 H5 (NEAT),e,8.3675,328.6855,224.8720,6.098222,0.0654484,0.59873293,118.8796,10/09.0/2020,2000,g 12.0,4.0
# From MPC 52904
C/2001 HT50 (LINEAR-NEAT),e,163.2114,42.9253,323.7153,778.0596,0.0000454,0.99645989,0.0000,07/08.5386/2003,2000,g  4.5,4.0
# From MPC 94669
C/2001 K3 (Skiff),e,52.3302,289.5593,3.5385,1885,0.0000120,0.99838285,0.0000,04/29.5099/2001,2000,g  8.5,4.0
# From MPC 44860
C/2001 K5 (LINEAR),h,10/20.4352/2002,72.6364,237.4387,47.2029,1.001833,5.185471,2000,4.0,4.0
# From MPC 46619
C/2001 M10 (NEAT),e,28.1879,293.7152,5.5324,26.66499,0.0071580,0.80219437,50.3828,10/09.0/2020,2000,g  8.0,4.0
# From MPC 45654
C/2001 N2 (LINEAR),h,08/15.9247/2002,138.5665,52.8626,152.2609,1.000120,2.711456,2000,7.5,4.0
# From MPC 89725
C/2001 O2 (NEAT),e,90.6932,328.3792,280.7683,3185,0.0000055,0.99849219,0.0000,10/18.2417/1999,2000,g  6.0,4.0
# From MPC 45654
C/2001 OG108 (LONEOS),e,80.1383,10.8957,116.4633,13.26888,0.0203917,0.92367630,138.4370,10/09.0/2020,2000,g 11.0,4.0
# From MPC 47727
C/2001 Q1 (NEAT),e,67.1027,138.9819,175.4209,166.7000,0.0004579,0.96510222,3.1853,10/09.0/2020,2000,g  7.0,4.0
# From MPC 52163
C/2001 Q4 (NEAT),h,05/20.1411/2004,99.4184,210.3865,1.3496,1.000932,0.969615,2000,3.5,4.0
# From MPC 75704
P/2001 Q6 (NEAT),e,56.9010,22.1244,42.9489,7.950078,0.0439690,0.82278191,305.5591,10/09.0/2020,2000,g 13.5,4.0
# From MPC 46619
C/2001 RX14 (LINEAR),e,30.5827,14.4714,121.3455,5892,0.0000022,0.99964546,0.0000,01/07.5353/2003,2000,g  6.5,4.0
# From MPC 44031
C/2001 S1 (Skiff),e,139.1357,330.1124,285.1926,55.04186,0.0024136,0.93186920,359.9987,06/02.0/2001,2000,g  9.0,4.0
# From MPC 46620
C/2001 U6 (LINEAR),e,107.0016,115.0446,85.6151,937.0542,0.0000344,0.99529157,0.0000,08/01.2410/2002,2000,g  7.5,4.0
# From MPC 44504
C/2001 W1 (LINEAR),p,12/24.8982/2001,118.6530,6.1613,2.399475,91.9408,2000,13.0,4.0
# From MPC 46762
C/2001 W2 (BATTERS),e,116.2501,112.8676,141.9047,17.76916,0.0131584,0.94000330,90.4076,10/09.0/2020,2000,g 11.0,4.0
# From MPC 45182
C/2001 X1 (LINEAR),e,114.9659,336.1471,202.2335,679.4977,0.0000556,0.99750980,0.0000,01/10.4440/2002,2000,g 11.0,4.0
# From MPC 89006
C/2002 A1 (LINEAR),e,13.9955,81.0329,18.8678,16.08286,0.0152813,0.70566199,105.8192,10/09.0/2020,2000,g 12.5,2.0
# From MPC 89006
C/2002 A2 (LINEAR),e,13.9646,81.0374,19.2257,15.93614,0.0154928,0.70324143,107.1763,10/09.0/2020,2000,g 11.0,2.0
# From MPC 89006
C/2002 A3 (LINEAR),e,48.5004,136.7055,329.2792,161.5685,0.0004799,0.96799156,3.2434,10/09.0/2020,2000,g  6.5,4.0
# From MPC 45962
C/2002 B1 (LINEAR),e,50.9988,58.1206,76.0860,9.883558,0.0317201,0.76800128,214.6293,10/09.0/2020,2000,g 11.5,4.0
# From MPC 45334
C/2002 B2 (LINEAR),p,04/06.7711/2002,152.8720,257.0670,3.842966,54.3227,2000,9.0,4.0
# From MPC 45183
C/2002 B3 (LINEAR),p,01/14.4151/2002,73.6796,122.9251,6.052462,289.3856,2000,7.0,4.0
# From MPC 46620
C/2002 C2 (LINEAR),e,104.8328,243.0675,159.5796,1512,0.0000168,0.99787586,0.0000,04/09.8253/2002,2000,g  8.5,4.0
# From MPC 49591
C/2002 CE10 (LINEAR),e,145.5219,147.3402,125.9318,9.775309,0.0322484,0.78969543,204.4116,10/09.0/2020,2000,g 13.0,2.0
# From MPC 46099
C/2002 E2 (Snyder-Murakami),h,02/27.0665/2002,92.7468,244.5034,9.2095,1.000838,1.479149,2000,7.5,4.0
# From MPC 47727
P/2002 EJ57 (LINEAR),e,4.9760,330.3310,167.3563,6.473438,0.0598414,0.59289542,50.4713,10/09.0/2020,2000,g 12.5,4.0
# From MPC 45655
C/2002 F1 (Utsunomiya),e,80.8767,289.0294,125.9001,954.5536,0.0000334,0.99954083,0.0000,04/22.8985/2002,2000,g  8.5,4.0
# From MPC 46100
C/2002 H2 (LINEAR),e,110.8607,268.9749,20.6086,278.0651,0.0002126,0.99406465,0.0000,03/26.5198/2002,2000,g 10.5,4.0
# From MPC 75513
C/2002 J4 (NEAT),h,10/11.6893/2003,46.6074,70.8985,230.6779,1.001655,3.615805,2000,5.5,4.0
# From MPC 51367
C/2002 J5 (LINEAR),h,09/18.7244/2003,117.4120,314.2046,75.1592,1.000691,5.758909,2000,11.0,2.0
# From MPC 46762
C/2002 K1 (NEAT),e,89.9938,280.3345,4.6158,6550,0.0000019,0.99950377,0.0000,06/17.1801/2002,2000,g 10.0,4.0
# From MPC 48921
C/2002 K2 (LINEAR),e,131.0833,294.4413,26.8618,584.7725,0.0000697,0.99096252,0.0000,12/31.6225/2001,2000,g 12.0,2.0
# From MPC 46620
C/2002 K4 (NEAT),e,94.3942,308.1087,24.4855,17.40882,0.0135691,0.84058716,90.4427,10/09.0/2020,2000,g 10.5,4.0
# From MPC 52905
C/2002 L9 (NEAT),h,04/10.5660/2004,68.6144,110.4093,231.4587,1.000084,7.021031,2000,8.5,2.0
# From MPC 46762
